ORBCOMM FM37            
1 33064U 08031E   25219.41319875  .00001187  00000+0  18348-3 0  9998
2 33064  48.4402 100.0787 0005517 237.0425 293.6790 14.79908706921632
ORBCOMM FM40            
1 33065U 08031F   25219.03974663  .00001626  00000+0  22859-3 0  9999
2 33065  48.4422  85.0324 0006658 247.7789 258.2103 14.82204989921701
VESSELSAT 1             
1 37840U 11058C   25219.42827336  .00000329  00000+0  34738-4 0  9993
2 37840  19.9610 143.8239 0013657  30.8784 329.2422 14.11361400713558
ORBCOMM FM109           
1 40086U 14040A   25219.36785768  .00000482  00000+0  13980-3 0  9993
2 40086  47.0030 134.5650 0001886 239.0401 121.0299 14.58235132588537
ORBCOMM FM107           
1 40087U 14040B   25219.46244799  .00000439  00000+0  13036-3 0  9993
2 40087  47.0047 135.0629 0000716 190.0972 169.9899 14.58309422588629
ORBCOMM FM106           
1 40088U 14040C   25219.56505179  .00000694  00000+0  14714-3 0  9994
2 40088  47.0616 312.5646 0017541 302.9503  56.9701 14.69537643591037
ORBCOMM FM111           
1 40089U 14040D   25219.43741498  .00002328  00000+0  28266-3 0  9990
2 40089  47.0004 156.4074 0029593  77.1259 283.2941 14.86520733597856
ORBCOMM FM104           
1 40090U 14040E   25219.23295206  .00000440  00000+0  13535-3 0  9997
2 40090  47.0041 170.3709 0015632  76.2636 283.9988 14.56701689588066
